0 FREGAT R/B
1 38996U 12063B   13282.35508041  .00000734  00000-0  00000+0 0  1499
2 38996 062.9365 135.7079 7142904 295.0347 009.2622 02.00184131  6587
0 FREGAT R/B
1 38996U 12063B   13285.35225342  .00000648  00000-0  00000+0 0  1508
2 38996 062.9371 135.3255 7141738 295.0349 009.2645 02.00187163  6642
0 FREGAT R/B
1 38996U 12063B   13287.84986940  .00000570  00000-0  00000+0 0  1517
2 38996 062.9443 135.0010 7140994 295.0377 009.2707 02.00189331  6695
0 FREGAT R/B
1 38996U 12063B   13290.34744362  .00000475  00000-0  00000+0 0  1521
2 38996 062.9484 134.6770 7140414 295.0400 009.2672 02.00191182  6746
0 FREGAT R/B
1 38996U 12063B   13290.34746183  .00000000  00000-0  10000-3 0  1534
2 38996 062.9377 134.6483 7138749 295.0555 009.2746 02.00194805  6744
0 FREGAT R/B
1 38996U 12063B   13292.84499508  .00000379  00000-0  00000+0 0  1531
2 38996 062.9514 134.3537 7139829 295.0413 009.2594 02.00192615  6790
0 FREGAT R/B
1 38996U 12063B   13295.34253306  .00000305  00000-0  00000+0 0  1543
2 38996 062.9549 134.0246 7139177 295.0466 009.2559 02.00193807  6847
